{"type": "FeatureCollection", "features": [ {"type": "Feature", "properties": {"norad_id": 66859, "name": "STARLINK-35646", "group": "last-30-days", "lat": 21.01892842711737, "lon": -157.38557166139162, "alt_km": 400.94294001346316, "timestamp": "2025-12-25T03:55:54.954442+00:00", "meta": {"OBJECT_NAME": "STARLINK-35646", "OBJECT_ID": "2025-281M", "EPOCH": "2025-12-24T20:00:01.000224", "MEAN_MOTION": 15.56034734, "ECCENTRICITY": 0.0001507, "INCLINATION": 43.0006, "RA_OF_ASC_NODE": 48.9134, "ARG_OF_PERICENTER": 281.4177, "MEAN_ANOMALY": 174.1607, "EPHEMERIS_TYPE": 0, "CLASSIFICATION_TYPE": "U", "NORAD_CAT_ID": 66859, "ELEMENT_SET_NO": 999, "REV_AT_EPOCH": 333, "BSTAR": -0.032427, "MEAN_MOTION_DOT": -0.02067852, "MEAN_MOTION_DDOT": 0}, "tle": {"line1": "1 66859U 25281M   25358.83334491 -.02067852  00000+0 -32427-1 0  9990", "line2": "2 66859  43.0006  48.9134 0001507 281.4177 174.1607 15.56034734  3334"}}, "geometry": {"type": "Point", "coordinates": [-157.38557166139162, 21.01892842711737]}}, {"type": "Feature", "properties": {"norad_id": 66860, "name": "STARLINK-35987", "group": "last-30-days", "lat": 14.895604763870782, "lon": -149.6437238823974, "alt_km": 401.8447597860859, "timestamp": "2025-12-25T03:55:54.954452+00:00", "meta": {"OBJECT_NAME": "STARLINK-35987", "OBJECT_ID": "2025-281N", "EPOCH": "2025-12-24T20:00:01.000224", "MEAN_MOTION": 15.56027303, "ECCENTRICITY": 0.0001463, "INCLINATION": 43.0001, "RA_OF_ASC_NODE": 48.8893, "ARG_OF_PERICENTER": 287.2825, "MEAN_ANOMALY": 177.8859, "EPHEMERIS_TYPE": 0, "CLASSIFICATION_TYPE": "U", "NORAD_CAT_ID": 66860, "ELEMENT_SET_NO": 999, "REV_AT_EPOCH": 333, "BSTAR": -0.032307, "MEAN_MOTION_DOT": -0.02060473, "MEAN_MOTION_DDOT": 0}, "tle": {"line1": "1 66860U 25281N   25358.83334491 -.02060473  00000+0 -32307-1 0  9991", "line2": "2 66860  43.0001  48.8893 0001463 287.2825 177.8859 15.56027303  3330"}}, "geometry": {"type": "Point", "coordinates": [-149.6437238823974, 14.895604763870782]}}, {"type": "Feature", "properties": {"norad_id": 66861, "name": "STARLINK-35991", "group": "last-30-days", "lat": 18.606709274451603, "lon": -154.2225187891578, "alt_km": 401.2443551419037, "timestamp": "2025-12-25T03:55:54.954464+00:00", "meta": {"OBJECT_NAME": "STARLINK-35991", "OBJECT_ID": "2025-281P", "EPOCH": "2025-12-24T20:00:01.000224", "MEAN_MOTION": 15.56025687, "ECCENTRICITY": 0.0001512, "INCLINATION": 43, "RA_OF_ASC_NODE": 48.9042, "ARG_OF_PERICENTER": 279.7896, "MEAN_ANOMALY": 179.6301, "EPHEMERIS_TYPE": 0, "CLASSIFICATION_TYPE": "U", "NORAD_CAT_ID": 66861, "ELEMENT_SET_NO": 999, "REV_AT_EPOCH": 333, "BSTAR": -0.032257, "MEAN_MOTION_DOT": -0.02057537, "MEAN_MOTION_DDOT": 0}, "tle": {"line1": "1 66861U 25281P   25358.83334491 -.02057537  00000+0 -32257-1 0  9993", "line2": "2 66861  43.0000  48.9042 0001512 279.7896 179.6301 15.56025687  3331"}}, "geometry": {"type": "Point", "coordinates": [-154.2225187891578, 18.606709274451603]}}, {"type": "Feature", "properties": {"norad_id": 66862, "name": "STARLINK-35974", "group": "last-30-days", "lat": 19.81852535228413, "lon": -155.79052714678213, "alt_km": 401.0406004134866, "timestamp": "2025-12-25T03:55:54.954476+00:00", "meta": {"OBJECT_NAME": "STARLINK-35974", "OBJECT_ID": "2025-281Q", "EPOCH": "2025-12-24T20:00:01.000224", "MEAN_MOTION": 15.56034207, "ECCENTRICITY": 0.0001277, "INCLINATION": 43.0003, "RA_OF_ASC_NODE": 48.9086, "ARG_OF_PERICENTER": 284.4181, "MEAN_ANOMALY": 173.0778, "EPHEMERIS_TYPE": 0, "CLASSIFICATION_TYPE": "U", "NORAD_CAT_ID": 66862, "ELEMENT_SET_NO": 999, "REV_AT_EPOCH": 323, "BSTAR": -0.032431, "MEAN_MOTION_DOT": -0.02067861, "MEAN_MOTION_DDOT": 0}, "tle": {"line1": "1 66862U 25281Q   25358.83334491 -.02067861  00000+0 -32431-1 0  9999", "line2": "2 66862  43.0003  48.9086 0001277 284.4181 173.0778 15.56034207  3234"}}, "geometry": {"type": "Point", "coordinates": [-155.79052714678213, 19.81852535228413]}}, {"type": "Feature", "properties": {"norad_id": 66863, "name": "STARLINK-36134", "group": "last-30-days", "lat": 17.380919104686242, "lon": -152.67540815709532, "alt_km": 401.40703152260267, "timestamp": "2025-12-25T03:55:54.954486+00:00", "meta": {"OBJECT_NAME": "STARLINK-36134", "OBJECT_ID": "2025-281R", "EPOCH": "2025-12-24T20:00:01.000224", "MEAN_MOTION": 15.56024108, "ECCENTRICITY": 0.0001266, "INCLINATION": 43.0003, "RA_OF_ASC_NODE": 48.8994, "ARG_OF_PERICENTER": 287.1241, "MEAN_ANOMALY": 174.2093, "EPHEMERIS_TYPE": 0, "CLASSIFICATION_TYPE": "U", "NORAD_CAT_ID": 66863, "ELEMENT_SET_NO": 999, "REV_AT_EPOCH": 333, "BSTAR": -0.032192, "MEAN_MOTION_DOT": -0.02053581, "MEAN_MOTION_DDOT": 0}, "tle": {"line1": "1 66863U 25281R   25358.83334491 -.02053581  00000+0 -32192-1 0  9998", "line2": "2 66863  43.0003  48.8994 0001266 287.1241 174.2093 15.56024108  3330"}}, "geometry": {"type": "Point", "coordinates": [-152.67540815709532, 17.380919104686242]}}, {"type": "Feature", "properties": {"norad_id": 66864, "name": "STARLINK-36070", "group": "last-30-days", "lat": 16.14430336437233, "lon": -151.1512187614788, "alt_km": 401.66173635762243, "timestamp": "2025-12-25T03:55:54.954496+00:00", "meta": {"OBJECT_NAME": "STARLINK-36070", "OBJECT_ID": "2025-281S", "EPOCH": "2025-12-24T20:00:01.000224", "MEAN_MOTION": 15.56030463, "ECCENTRICITY": 0.0001581, "INCLINATION": 42.9997, "RA_OF_ASC_NODE": 48.8943, "ARG_OF_PERICENTER": 283.3136, "MEAN_ANOMALY": 179.936, "EPHEMERIS_TYPE": 0, "CLASSIFICATION_TYPE": "U", "NORAD_CAT_ID": 66864, "ELEMENT_SET_NO": 999, "REV_AT_EPOCH": 336, "BSTAR": -0.032347, "MEAN_MOTION_DOT": -0.02063012, "MEAN_MOTION_DDOT": 0}, "tle": {"line1": "1 66864U 25281S   25358.83334491 -.02063012  00000+0 -32347-1 0  9991", "line2": "2 66864  42.9997  48.8943 0001581 283.3136 179.9360 15.56030463  3369"}}, "geometry": {"type": "Point", "coordinates": [-151.1512187614788, 16.14430336437233]}}, {"type": "Feature", "properties": {"norad_id": 66865, "name": "STARLINK-36117", "group": "last-30-days", "lat": 13.638122458772395, "lon": -148.15438065549418, "alt_km": 401.9588737935319, "timestamp": "2025-12-25T03:55:54.954506+00:00", "meta": {"OBJECT_NAME": "STARLINK-36117", "OBJECT_ID": "2025-281T", "EPOCH": "2025-12-24T20:00:01.000224", "MEAN_MOTION": 15.56028197, "ECCENTRICITY": 0.0001389, "INCLINATION": 43.0005, "RA_OF_ASC_NODE": 48.8849, "ARG_OF_PERICENTER": 286.4815, "MEAN_ANOMALY": 180.602, "EPHEMERIS_TYPE": 0, "CLASSIFICATION_TYPE": "U", "NORAD_CAT_ID": 66865, "ELEMENT_SET_NO": 999, "REV_AT_EPOCH": 333, "BSTAR": -0.0323, "MEAN_MOTION_DOT": -0.02060084, "MEAN_MOTION_DDOT": 0}, "tle": {"line1": "1 66865U 25281T   25358.83334491 -.02060084  00000+0 -32300-1 0  9997", "line2": "2 66865  43.0005  48.8849 0001389 286.4815 180.6020 15.56028197  3331"}}, "geometry": {"type": "Point", "coordinates": [-148.15438065549418, 13.638122458772395]}}, {"type": "Feature", "properties": {"norad_id": 66866, "name": "STARLINK-36126", "group": "last-30-days", "lat": 12.370640054055452, "lon": -146.6805648029472, "alt_km": 402.1688801435357, "timestamp": "2025-12-25T03:55:54.954516+00:00", "meta": {"OBJECT_NAME": "STARLINK-36126", "OBJECT_ID": "2025-281U", "EPOCH": "2025-12-24T20:00:01.000224", "MEAN_MOTION": 15.5603527, "ECCENTRICITY": 0.0001554, "INCLINATION": 43.0002, "RA_OF_ASC_NODE": 48.8799, "ARG_OF_PERICENTER": 284.8544, "MEAN_ANOMALY": 184.1468, "EPHEMERIS_TYPE": 0, "CLASSIFICATION_TYPE": "U", "NORAD_CAT_ID": 66866, "ELEMENT_SET_NO": 999, "REV_AT_EPOCH": 336, "BSTAR": -0.032509, "MEAN_MOTION_DOT": -0.02072541, "MEAN_MOTION_DDOT": 0}, "tle": {"line1": "1 66866U 25281U   25358.83334491 -.02072541  00000+0 -32509-1 0  9990", "line2": "2 66866  43.0002  48.8799 0001554 284.8544 184.1468 15.56035270  3366"}}, "geometry": {"type": "Point", "coordinates": [-146.6805648029472, 12.370640054055452]}}, {"type": "Feature", "properties": {"norad_id": 66867, "name": "STARLINK-36101", "group": "last-30-days", "lat": 11.097979019523214, "lon": -145.22372262238164, "alt_km": 402.3454490829954, "timestamp": "2025-12-25T03:55:54.954525+00:00", "meta": {"OBJECT_NAME": "STARLINK-36101", "OBJECT_ID": "2025-281V", "EPOCH": "2025-12-24T20:00:01.000224", "MEAN_MOTION": 15.56032229, "ECCENTRICITY": 0.0001573, "INCLINATION": 43.0004, "RA_OF_ASC_NODE": 48.8751, "ARG_OF_PERICENTER": 285.9271, "MEAN_ANOMALY": 184.9883, "EPHEMERIS_TYPE": 0, "CLASSIFICATION_TYPE": "U", "NORAD_CAT_ID": 66867, "ELEMENT_SET_NO": 999, "REV_AT_EPOCH": 317, "BSTAR": -0.032371, "MEAN_MOTION_DOT": -0.02064493, "MEAN_MOTION_DDOT": 0}, "tle": {"line1": "1 66867U 25281V   25358.83334491 -.02064493  00000+0 -32371-1 0  9995", "line2": "2 66867  43.0004  48.8751 0001573 285.9271 184.9883 15.56032229  3176"}}, "geometry": {"type": "Point", "coordinates": [-145.22372262238164, 11.097979019523214]}}, {"type": "Feature", "properties": {"norad_id": 66868, "name": "STARLINK-36108", "group": "last-30-days", "lat": 9.816931482606648, "lon": -143.7782761842409, "alt_km": 402.59601315375585, "timestamp": "2025-12-25T03:55:54.954535+00:00", "meta": {"OBJECT_NAME": "STARLINK-36108", "OBJECT_ID": "2025-281W", "EPOCH": "2025-12-24T20:00:01.000224", "MEAN_MOTION": 15.56033405, "ECCENTRICITY": 0.0001657, "INCLINATION": 43.0005, "RA_OF_ASC_NODE": 48.8701, "ARG_OF_PERICENTER": 288.8034, "MEAN_ANOMALY": 184.0288, "EPHEMERIS_TYPE": 0, "CLASSIFICATION_TYPE": "U", "NORAD_CAT_ID": 66868, "ELEMENT_SET_NO": 999, "REV_AT_EPOCH": 317, "BSTAR": -0.032423, "MEAN_MOTION_DOT": -0.02067637, "MEAN_MOTION_DDOT": 0}, "tle": {"line1": "1 66868U 25281W   25358.83334491 -.02067637  00000+0 -32423-1 0  9997", "line2": "2 66868  43.0005  48.8701 0001657 288.8034 184.0288 15.56033405  3172"}}, "geometry": {"type": "Point", "coordinates": [-143.7782761842409, 9.816931482606648]}}]}